NORAD_CAT_ID,OBJECT_NAME,OBJECT_TYPE,EPOCH,MEAN_MOTION,ECCENTRICITY,INCLINATION,RA_OF_ASC_NODE,ARG_OF_PERICENTER,MEAN_ANOMALY,BSTAR,MEAN_MOTION_DOT,MEAN_MOTION_DDOT,TLE_LINE0,TLE_LINE1,TLE_LINE2,SEMIMAJOR_AXIS,PERIOD,APOGEE,PERIGEE,DECAYED
51991.0,STARLINK-3652,PAYLOAD,2022-05-01 14:00:01,15.34124264,0.000178,53.2176,241.7234,35.366,318.8299,-0.022243,-0.00690076,0.0,0 STARLINK-3652,1 51991U 22025AM  22121.58334491 -.00690076  00000-0 -22243-1 0  9995,2 51991  53.2176 241.7234 0001780  35.3660 318.8299 15.34124264  3648,6841.66,93.865,464.74300000000005,462.307,0.0
51991.0,STARLINK-3652,PAYLOAD,2022-05-01 20:00:01,15.33757148,0.0001413,53.2174,240.5595,54.3099,241.1978,-0.022418,-0.00687558,0.0,0 STARLINK-3652,1 51991U 22025AM  22121.83334491 -.00687558  00000-0 -22418-1 0  9998,2 51991  53.2174 240.5595 0001413  54.3099 241.1978 15.33757148  9597,6842.752,93.887,465.583,463.65,0.0
51991.0,STARLINK-3652,PAYLOAD,2022-05-01 22:00:01,15.33636248,0.0001393,53.2173,240.1712,48.4498,347.4859,-0.022597,-0.00690178,0.0,0 STARLINK-3652,1 51991U 22025AM  22121.91668981 -.00690178  00000-0 -22597-1 0  9991,2 51991  53.2173 240.1712 0001393  48.4498 347.4859 15.33636248  3675,6843.111,93.894,465.929,464.023,0.0
51991.0,STARLINK-3652,PAYLOAD,2022-05-02 14:00:01,15.32659205,0.0002046,53.2175,237.0711,31.9424,85.5211,-0.02329,-0.00689762,0.0,0 STARLINK-3652,1 51991U 22025AM  22122.58334491 -.00689762  00000-0 -23290-1 0  9999,2 51991  53.2175 237.0711 0002046  31.9424  85.5211 15.32659205  3661,6846.019,93.954,469.285,466.483,0.0
51991.0,STARLINK-3652,PAYLOAD,2022-05-02 20:00:01,15.32292244,0.0001466,53.2173,235.9098,45.4559,11.9993,-0.023472,-0.00687255,0.0,0 STARLINK-3652,1 51991U 22025AM  22122.83334491 -.00687255  00000-0 -23472-1 0  9994,2 51991  53.2173 235.9098 0001466  45.4559  11.9993 15.32292244  9749,6847.111999999999,93.977,469.981,467.973,0.0
51991.0,STARLINK-3652,PAYLOAD,2022-05-02 22:00:01,15.32170416,0.0001593,53.2173,235.522,49.1551,108.2886,-0.023607,-0.00688479,0.0,0 STARLINK-3652,1 51991U 22025AM  22122.91668981 -.00688479  00000-0 -23607-1 0  9996,2 51991  53.2173 235.5220 0001593  49.1551 108.2886 15.32170416  3668,6847.475,93.984,470.431,468.249,0.0
51991.0,STARLINK-3652,PAYLOAD,2022-05-03 14:00:01,15.31192871,0.000199,53.2176,232.429,37.3974,198.0539,-0.024291,-0.00687154,0.0,0 STARLINK-3652,1 51991U 22025AM  22123.58334491 -.00687154  00000-0 -24291-1 0  9995,2 51991  53.2176 232.4290 0001990  37.3974 198.0539 15.31192871  3652,6850.389,94.044,473.617,470.891,0.0
51991.0,STARLINK-3652,PAYLOAD,2022-05-03 20:00:01,15.30827907,0.0001783,53.2173,231.2701,42.2115,131.9108,-0.024624,-0.00688527,0.0,0 STARLINK-3652,1 51991U 22025AM  22123.83334491 -.00688527  00000-0 -24624-1 0  9998,2 51991  53.2173 231.2701 0001783  42.2115 131.9108 15.30827907  9901,6851.478,94.067,474.565,472.121,0.0
51991.0,STARLINK-3652,PAYLOAD,2022-05-03 22:00:00,15.30707189,0.0001644,53.2173,230.8833,45.9756,227.6308,-0.024836,-0.00691579,0.0,0 STARLINK-3652,1 51991U 22025AM  22123.91667824 -.00691579  00000-0 -24836-1 0  9992,2 51991  53.2173 230.8833 0001644  45.9756 227.6308 15.30707189  3660,6851.8380000000025,94.074,474.83,472.577,0.0
51991.0,STARLINK-3652,PAYLOAD,2022-05-04 14:00:01,15.29730233,0.0001811,53.2176,227.7974,36.1957,311.9615,-0.025567,-0.00690694,0.0,0 STARLINK-3652,1 51991U 22025AM  22124.58334491 -.00690694  00000-0 -25567-1 0  9996,2 51991  53.2176 227.7974 0001811  36.1957 311.9615 15.29730233  3667,6854.755,94.134,477.861,475.379,0.0
51991.0,STARLINK-3652,PAYLOAD,2022-05-04 20:00:01,15.29365052,0.0001636999999999,53.2172,226.6407,43.0226,242.5496,-0.025906,-0.00691855,0.0,0 STARLINK-3652,1 51991U 22025AM  22124.83335648 -.00691855  00000-0 -25906-1 0  9996,2 51991  53.2172 226.6407 0001637  43.0226 242.5496 15.29365052 10054,6855.846,94.157,478.834,476.589,0.0
51991.0,STARLINK-3652,PAYLOAD,2022-05-04 22:00:01,15.29241487,0.00016,53.2175,226.2551,40.3421,344.275,-0.025926,-0.00689895,0.0,0 STARLINK-3652,1 51991U 22025AM  22124.91668981 -.00689895  00000-0 -25926-1 0  9997,2 51991  53.2175 226.2551 0001600  40.3421 344.2750 15.29241487  3667,6856.215999999999,94.164,479.17800000000005,476.984,0.0
51991.0,STARLINK-3652,PAYLOAD,2022-05-05 14:00:01,15.28265788,0.000198,53.2175,223.1763,32.8368,62.7463,-0.02677,-0.00691176,0.0,0 STARLINK-3652,1 51991U 22025AM  22125.58334491 -.00691176  00000-0 -26770-1 0  9990,2 51991  53.2175 223.1763 0001980  32.8368  62.7463 15.28265788  3678,6859.1330000000025,94.224,482.356,479.64,0.0
51991.0,STARLINK-3652,PAYLOAD,2022-05-05 22:00:00,15.2777581,0.000165,53.2173,221.6372,44.5633,85.6564,-0.027042,-0.00687975,0.0,0 STARLINK-3652,1 51991U 22025AM  22125.91667824 -.00687975  00000-0 -27042-1 0  9991,2 51991  53.2173 221.6372 0001650  44.5633  85.6564 15.27775810  3660,6860.6,94.255,483.597,481.333,0.0
51991.0,STARLINK-3652,PAYLOAD,2022-05-06 04:00:00,15.27408345,0.0001701,53.2174,220.4832,36.9935,28.81900000000001,-0.027284,-0.00686485,0.0,0 STARLINK-3652,1 51991U 22025AM  22126.16667824 -.00686485  00000-0 -27284-1 0  9992,2 51991  53.2174 220.4832 0001701  36.9935  28.8190 15.27408345 10259,6861.7,94.277,484.732,482.398,0.0
51991.0,STARLINK-3652,PAYLOAD,2022-05-06 14:00:01,15.26798949,0.0001987,53.2174,218.5652,38.4813,159.2486,-0.027839,-0.00687489,0.0,0 STARLINK-3652,1 51991U 22025AM  22126.58334491 -.00687489  00000-0 -27839-1 0  9990,2 51991  53.2174 218.5652 0001987  38.4813 159.2486 15.26798949  3671,6863.526,94.315,486.755,484.027,0.0
51991.0,STARLINK-3652,PAYLOAD,2022-05-07 04:00:00,15.25945674,0.0001556,53.2173,215.8783,52.8397,112.0376,-0.028684,-0.00689955,0.0,0 STARLINK-3652,1 51991U 22025AM  22127.16667824 -.00689955  00000-0 -28684-1 0  9993,2 51991  53.2173 215.8783 0001556  52.8397 112.0376 15.25945674 10417,6866.084,94.368,489.018,486.881,0.0
51991.0,STARLINK-3652,PAYLOAD,2022-05-07 14:00:01,15.25334501,0.0001874,53.2175,213.9646,38.2986,256.2965,-0.029122,-0.00687855,0.0,0 STARLINK-3652,1 51991U 22025AM  22127.58334491 -.00687855  00000-0 -29122-1 0  9995,2 51991  53.2175 213.9646 0001874  38.2986 256.2965 15.25334501  3666,6867.918000000002,94.406,491.07,488.496,0.0
51991.0,STARLINK-3652,PAYLOAD,2022-05-07 22:00:00,15.24847645,0.0001434,53.2174,212.4322,53.4452,272.2654,-0.029688,-0.00698496,0.0,0 STARLINK-3652,1 51991U 22025AM  22127.91667824 -.00698496  00000-0 -29688-1 0  9991,2 51991  53.2174 212.4322 0001434  53.4452 272.2654 15.24847645  3658,6869.38,94.436,492.23,490.26,0.0
51991.0,STARLINK-3652,PAYLOAD,2022-05-08 12:00:00,15.23991284,0.000174,53.2174,209.7561,42.3652,246.385,-0.030296,-0.00694975,0.0,0 STARLINK-3652,1 51991U 22025AM  22128.50001157 -.00694975  00000-0 -30296-1 0  9993,2 51991  53.2174 209.7561 0001740  42.3652 246.3850 15.23991284 10613,6871.953,94.489,495.014,492.622,0.0
51991.0,STARLINK-3652,PAYLOAD,2022-05-08 14:00:01,15.23870711,0.0001747,53.2175,209.3744,38.0166,348.1633,-0.030527,-0.00697573,0.0,0 STARLINK-3652,1 51991U 22025AM  22128.58334491 -.00697573  00000-0 -30527-1 0  9995,2 51991  53.2175 209.3744 0001747  38.0166 348.1633 15.23870711  3659,6872.316,94.496,495.381,492.98,0.0
51991.0,STARLINK-3652,PAYLOAD,2022-05-08 22:00:00,15.23381704,0.0001535,53.2175,207.8453,44.4926,11.0433,-0.03092,-0.00696358,0.0,0 STARLINK-3652,1 51991U 22025AM  22128.91667824 -.00696358  00000-0 -30920-1 0  9998,2 51991  53.2175 207.8453 0001535  44.4926  11.0433 15.23381704  3652,6873.786,94.527,496.706,494.596,0.0
51991.0,STARLINK-3652,PAYLOAD,2022-05-09 12:00:00,15.22528503,0.0001686,53.2174,205.1752,41.3946,334.0995,-0.031811,-0.00698334,0.0,0 STARLINK-3652,1 51991U 22025AM  22129.50001157 -.00698334  00000-0 -31811-1 0  9991,2 51991  53.2174 205.1752 0001686  41.3946 334.0995 15.22528503 10769,6876.354,94.58,499.378,497.06,0.0
51991.0,STARLINK-3652,PAYLOAD,2022-05-09 14:00:01,15.22404623,0.0001817,53.2175,204.7944,40.6544,71.8941,-0.031792,-0.0069556,0.0,0 STARLINK-3652,1 51991U 22025AM  22129.58335648 -.00695560  00000-0 -31792-1 0  9990,2 51991  53.2175 204.7944 0001817  40.6544  71.8941 15.22404623  3664,6876.727,94.587,499.841,497.342,0.0
51991.0,STARLINK-3652,PAYLOAD,2022-05-09 22:00:00,15.21916534,0.0001732,53.2174,203.2686,42.9495,97.131,-0.032242,-0.00695283,0.0,0 STARLINK-3652,1 51991U 22025AM  22129.91667824 -.00695283  00000-0 -32242-1 0  9994,2 51991  53.2174 203.2686 0001732  42.9495  97.1310 15.21916534  3654,6878.196999999999,94.618,501.253,498.871,0.0
51991.0,STARLINK-3652,PAYLOAD,2022-05-10 14:00:01,15.20937954,0.0001774,53.2175,200.2246,47.2739,146.236,-0.033016,-0.0069194,0.0,0 STARLINK-3652,1 51991U 22025AM  22130.58334491 -.00691940  00000-0 -33016-1 0  9996,2 51991  53.2175 200.2246 0001774  47.2739 146.2360 15.20937954  3658,6881.147,94.678,504.233,501.791,0.0
51991.0,STARLINK-3652,PAYLOAD,2022-05-10 18:00:00,15.20690538,0.0001663,53.2169,199.4626,40.3588,346.1437,-0.032978,-0.00686491,0.0,0 STARLINK-3652,1 51991U 22025AM  22130.75001157 -.00686491  00000-0 -32978-1 0  9996,2 51991  53.2169 199.4626 0001663  40.3588 346.1437 15.20690538 10956,6881.893,94.694,504.903,502.614,0.0
51991.0,STARLINK-3652,PAYLOAD,2022-05-11 20:00:01,15.19109002,0.0001710999999999,53.2173,194.5257,48.4773,148.8873,-0.035015,-0.00695337,0.0,0 STARLINK-3652,1 51991U 22025AM  22131.83334491 -.00695337  00000-0 -35015-1 0  9990,2 51991  53.2173 194.5257 0001711  48.4773 148.8873 15.19109002 11126,6886.669,94.792,509.712,507.356,0.0
51991.0,STARLINK-3652,PAYLOAD,2022-05-11 22:00:00,15.18987457,0.0001546,53.2176,194.146,51.0859,242.2424,-0.035187,-0.00696206,0.0,0 STARLINK-3652,1 51991U 22025AM  22131.91667824 -.00696206  00000-0 -35187-1 0  9994,2 51991  53.2176 194.1460 0001546  51.0859 242.2424 15.18987457  1309,6887.036,94.8,509.966,507.837,0.0
